{
  "norad_id": 54219,
  "name": "LDPE-2",
  "history": [
    {
      "epoch": "2026-03-28T14:44:51.737280Z",
      "apogee_km": 35711.36722648932,
      "perigee_km": 35709.17862917307,
      "latitude_deg": 5.092052400490667,
      "longitude_deg": 127.68188845744888,
      "height_km": 35710.219290239686,
      "semi_major_axis_km": 42088.40992783119,
      "eccentricity": 2.6e-05,
      "inclination_deg": 5.4477,
      "raan_deg": 64.1024,
      "arg_perigee_deg": 260.2894,
      "mean_anomaly_deg": 210.4352,
      "mean_motion_rev_day": 1.00544654
    }
  ]
}