{"fetched_at":"2026-03-29T02:12:04Z","count":15717,"tles":[{"name":"LDPE-2","line1":"1 54219U 22144A   26087.61448770 -.00000334  00000+0  00000+0 0  9993","line2":"2 54219   5.4477  64.1024 0000260 260.2894 210.4352  1.00544654 11037","category":"Other"}]}